RESOURCESAT-2A          
1 41877U 16074A   21207.79634902  .00000000  00000-0  20345-4 0  9995
2 41877  98.7539 281.3824 0001933 147.1411 212.9886 14.21609959240494
WGS F8 (USA 272)        
1 41879U 16075A   21207.56380833 -.00000218  00000-0  00000-0 0  9998
2 41879   0.0170  51.0559 0000190  77.6747 168.5185  1.00271902 16915
FENGYUN 4A              
1 41882U 16077A   21207.58174413 -.00000346  00000-0  00000-0 0  9993
2 41882   0.0662  74.8860 0002150  53.9758 129.7187  1.00267612 17061
CYGFM05                 
1 41884U 16078A   21206.96055225  .00000738  00000-0  40228-4 0  9990
2 41884  34.9573  72.7052 0014867  48.0984 312.0993 15.15071446255227
CYGFM04                 
1 41885U 16078B   21207.71639086  .00000723  00000-0  38920-4 0  9998
2 41885  34.9506  59.0113 0013103  69.4492 290.7624 15.15580578255520
CYGFM02                 
1 41886U 16078C   21207.31458212  .00000747  00000-0  40151-4 0  9990
2 41886  34.9596  63.5309 0013901  60.4929 299.7167 15.15578998255400
CYGFM01                 
1 41887U 16078D   21207.31131332  .00000692  00000-0  38028-4 0  9991
2 41887  34.9541  72.3230 0015292  51.4543 308.7537 15.14861702255239
CYGFM08                 
1 41888U 16078E   21207.32348701  .00000737  00000-0  39919-4 0  9993
2 41888  34.9510  66.3271 0014399  61.3569 298.8589 15.15280864255375
CYGFM06                 
1 41889U 16078F   21207.29521665  .00000726  00000-0  39085-4 0  9994
2 41889  34.9592  62.3500 0012864  60.0193 300.1794 15.15572760255353
CYGFM07                 
1 41890U 16078G   21207.27394737  .00000692  00000-0  37349-4 0  9995
2 41890  34.9531  61.3911 0012605  63.8327 296.3680 15.15568671255330
CYGFM03                 
1 41891U 16078H   21207.27146675  .00000701  00000-0  37781-4 0  9993
2 41891  34.9563  61.7821 0012124  61.8718 298.3217 15.15565025255325
ECHOSTAR 19             
1 41893U 16079A   21207.51455190 -.00000154  00000-0  00000-0 0  9991
2 41893   0.0171  66.8175 0001663  62.5668 263.1736  1.00272868 16793
ARASE (ERG)             
1 41896U 16080A   21207.61396484 -.00000112  00000-0  35212-3 0  9997
2 41896  31.8771 352.9296 7008757  44.6616 353.8697  2.53955147 42642
TANSAT                  
1 41898U 16081A   21207.81423505  .00000143  00000-0  42355-4 0  9997
2 41898  98.3270 154.1113 0022698  67.6513 292.7094 14.56889512244284
YIJIAN                  
1 41899U 16081B   21207.79387492  .00000011  00000-0  12945-4 0  9995
2 41899  98.3205 152.8890 0023588  68.7257 291.6466 14.56566145244236
SPARK 1                 
1 41900U 16081C   21207.83628329  .00000072  00000-0  27085-4 0  9998
2 41900  98.3234 151.2988 0026597  70.1223 290.2842 14.55611115244088
SPARK 2                 
1 41901U 16081D   21207.80754699  .00000030  00000-0  17660-4 0  9998
2 41901  98.3169 149.6369 0028302  71.2306 289.1967 14.55275335244029
JCSAT-15                
1 41903U 16082A   21207.34052626 -.00000367  00000-0  00000-0 0  9991
2 41903   0.0168  66.2988 0001626  60.9291  49.6552  1.00271112 16840
STAR ONE D1             
1 41904U 16082B   21207.53816990 -.00000227  00000-0  00000+0 0  9999
2 41904   0.0050 322.9133 0002372 173.9805 277.2781  1.00270686 16871
SUPERVIEW-1 01          
1 41907U 16083A   21207.83109208  .00001317  00000-0  72903-4 0  9999
2 41907  97.5034 293.8013 0013016 274.9335 200.2829 15.15536690253005
SUPERVIEW-1 02          
1 41908U 16083B   21207.80761793  .00001272  00000-0  70550-4 0  9996
2 41908  97.4110 279.7397 0012035 270.3485 211.4027 15.15507345253003
TJS-2                   
1 41911U 17001A   21207.54714628 -.00000023  00000-0  00000-0 0  9990
2 41911   0.4502 282.8541 0005925 248.2388  36.8349  1.00274760 16811
XINGYUN SHIYAN-1        
1 41913U 17002A   21207.74959955  .00002062  00000-0  12031-3 0  9993
2 41913  97.3467 262.4243 0010911 321.8341 156.7879 15.12974415250620
JILIN-1-03              
1 41914U 17002B   21207.72647438  .00000364  00000-0  25908-4 0  9993
2 41914  97.3392 258.2861 0011321 338.7180 137.2305 15.10347205250392
KAIDUN 1                
1 41915U 17002C   21207.72797237  .00000610  00000-0  38886-4 0  9990
2 41915  97.3447 262.5596 0009320 338.5195 143.8282 15.12238811250646
IRIDIUM 106             
1 41917U 17003A   21207.74233025  .00000113  00000-0  33126-4 0  9995
2 41917  86.3976 115.0900 0002422  75.8455 284.3010 14.34224728237156
IRIDIUM 103             
1 41918U 17003B   21207.45058174  .00000105  00000-0  30456-4 0  9998
2 41918  86.3977 115.1176 0002472  89.7912 270.3567 14.34216050237130
IRIDIUM 109             
1 41919U 17003C   21207.45692285  .00000116  00000-0  34368-4 0  9994
2 41919  86.3978 115.1447 0002319  85.1123 275.0338 14.34215926237103
IRIDIUM 102             
1 41920U 17003D   21207.77405341  .00000108  00000-0  31452-4 0  9998
2 41920  86.3977 114.9741 0002075  89.7910 270.3523 14.34217372237236
IRIDIUM 105             
1 41921U 17003E   21207.74479293  .00000105  00000-0  30526-4 0  9991
2 41921  86.3951  83.3748 0002595  76.9250 283.2235 14.34220912239089
IRIDIUM 104             
1 41922U 17003F   21207.50767492  .00000105  00000-0  30558-4 0  9992
2 41922  86.3977 115.1010 0002461  79.7658 280.3815 14.34216208237183
IRIDIUM 114             
1 41923U 17003G   21207.44423572  .00000093  00000-0  26009-4 0  9996
2 41923  86.3973 115.1160 0002058  77.8919 282.2507 14.34216670237156
IRIDIUM 108             
1 41924U 17003H   21207.40274647  .00000100  00000-0  28614-4 0  9993
2 41924  86.3946  83.5123 0002275  76.7559 283.3890 14.34220177239003
IRIDIUM 112             
1 41925U 17003J   21207.50132254  .00000102  00000-0  29537-4 0  9999
2 41925  86.3973 115.0184 0001819  82.8934 277.2469 14.34217152237180
IRIDIUM 111             
1 41926U 17003K   21207.48864747  .00000100  00000-0  28767-4 0  9998
2 41926  86.3974 115.0554 0002448  87.7083 272.4393 14.34219186237161
SBIRS GEO-4 (USA 273)   
1 41937U 17004A   21207.50207715  .00000116  00000-0  00000-0 0  9993
2 41937   2.9793 313.9394 0002562 172.7903 199.0077  1.00272344 16690
HISPASAT 36W-1          
1 41942U 17006A   21207.74203138 -.00000260  00000-0  00000+0 0  9992
2 41942   0.0019 336.8870 0001102 153.5630  45.3001  1.00272694 16612
TELKOM 3S               
1 41944U 17007A   21207.55744012 -.00000379  00000-0  00000-0 0  9997
2 41944   0.0168  67.8390 0002456  56.4139 138.8811  1.00271601 16226
INTELSAT 32E (IS-32E)   
1 41945U 17007B   21207.74063560 -.00000285  00000-0  00000+0 0  9996
2 41945   0.0182  61.8663 0000515 321.9133 144.3022  1.00270254 16339
CARTOSAT-2D             
1 41948U 17008A   21207.79684291  .00001060  00000-0  53466-4 0  9995
2 41948  97.4402 267.5285 0007992  35.6611 324.5154 15.19270575246354
INS-1A                  
1 41949U 17008B   21207.60399789  .00002700  00000-0  10647-3 0  9996
2 41949  97.3056 269.8297 0007557 320.4188  39.6499 15.26402239247021
FLOCK 3P-8              
1 41951U 17008D   21207.44877119  .00002171  00000-0  82646-4 0  9990
2 41951  97.3197 274.3580 0006278 313.8775  46.1946 15.27790716247237
INS-1B                  
1 41954U 17008G   21207.41027039  .00002648  00000-0  10445-3 0  9994
2 41954  97.3053 269.6624 0007476 323.2692  36.8033 15.26398959246954
FLOCK 3P-24             
1 41956U 17008J   21207.50280122  .00002258  00000-0  81065-4 0  9994
2 41956  97.3215 277.3103 0005808 292.7653  67.2974 15.29697381247449
FLOCK 3P-4              
1 41965U 17008T   21207.49172348  .00002549  00000-0  95637-4 0  9995
2 41965  97.3190 274.4286 0006234 311.4566  48.6138 15.28114864247160
FLOCK 3P-2              
1 41966U 17008U   21207.49504304  .00003132  00000-0  11692-3 0  9994
2 41966  97.3205 274.5778 0005899 308.5086  51.5624 15.28119534247088
FLOCK 3P-3              
1 41968U 17008W   21207.45299590  .00002358  00000-0  88036-4 0  9996
2 41968  97.3204 274.8497 0006083 308.1944  51.8747 15.28357150247183
FLOCK 3P-12             
1 41972U 17008AA  21207.47904665  .00002334  00000-0  87708-4 0  9998
2 41972  97.3208 274.6213 0005951 314.7018  45.3736 15.28148614247161
FLOCK 3P-11             
1 41975U 17008AD  21207.75066150  .00002178  00000-0  82100-4 0  9997
2 41975  97.3195 274.8028 0006099 310.8334  49.2376 15.28118113246979
FLOCK 3P-60             
1 41976U 17008AE  21207.46167112  .00002465  00000-0  92591-4 0  9990
2 41976  97.3218 274.7814 0005741 315.4915  44.5863 15.28120328246416
FLOCK 3P-58             
1 41977U 17008AF  21207.74591752  .00002370  00000-0  89087-4 0  9994
2 41977  97.3206 274.8773 0005950 312.7569  47.3170 15.28129493247286
FLOCK 3P-57             
1 41978U 17008AG  21207.46989736  .00002430  00000-0  91259-4 0  9998
2 41978  97.3200 274.5968 0005975 311.6921  48.3806 15.28136801247087
FLOCK 3P-70             
1 41980U 17008AJ  21207.47269345  .00003284  00000-0  12235-3 0  9993
2 41980  97.3241 275.2240 0006071 317.0586  43.0179 15.28145151247084
FLOCK 3P-34             
1 41988U 17008AS  21207.46793990  .00002117  00000-0  79844-4 0  9992
2 41988  97.3218 274.7462 0005448 312.9354  47.1428 15.28143128246566
FLOCK 3P-33             
1 41990U 17008AU  21207.44433167  .00002047  00000-0  79331-4 0  9993
2 41990  97.3210 274.2782 0005667 318.2296  41.8510 15.27268229246537
LEMUR-2-JOBANPUTRA      
1 41991U 17008AV  21207.48082433  .00002237  00000-0  88315-4 0  9997
2 41991  97.3084 271.0596 0005839 327.9556  32.1328 15.26551641246398
LEMUR-2-SPIRE-MINIONS   
1 41992U 17008AW  21207.49244263  .00003565  00000-0  13138-3 0  9995
2 41992  97.3136 273.7130 0005302 319.8019  40.2828 15.28448382246540
LEMUR-2-SATCHMO         
1 41993U 17008AX  21207.48565498  .00002568  00000-0  10018-3 0  9997
2 41993  97.3085 271.5191 0005815 326.4880  33.5990 15.26815605246422
LEMUR-2-SMITA-SHARAD    
1 41994U 17008AY  21207.73469727  .00003444  00000-0  12714-3 0  9993
2 41994  97.3128 273.7686 0005314 316.5817  43.5004 15.28414953246574
